start=new Date('2021-09-19T00:00:00.000Z').valueOf();
sats=[{"LAUNCH_DATE":"2021-01-20","COUNTRY_CODE":"US","RCS_SIZE":"LARGE","REF_FRAME":"TEME","INCLINATION":"53.0547","OBJECT_ID":"2021-005K","PERIAPSIS":"545.848","EPOCH":"2021-09-18T17:12:52.360416","SITE":"AFETR","NORAD_CAT_ID":"47358","FILE":"3118781","OBJECT_TYPE":"PAYLOAD","OBJECT_NAME":"STARLINK-2055","ECCENTRICITY":"0.00019980","ELEMENT_SET_NO":"999","MEAN_MOTION_DDOT":"0.0000000000000","BSTAR":"-0.00003808100000","ARG_OF_PERICENTER":"69.2993","CLASSIFICATION_TYPE":"U","DECAY_DATE":null,"TLE_LINE2":"2 47358  53.0547 162.3127 0001998  69.2993 290.8210 15.06394066 37338","EPHEMERIS_TYPE":"0","MEAN_MOTION":"15.06394066","APOAPSIS":"548.615","CENTER_NAME":"EARTH","GP_ID":"184973350","MEAN_MOTION_DOT":"-0.00000849","REV_AT_EPOCH":"3733","SEMIMAJOR_AXIS":"6925.367","TLE_LINE1":"1 47358U 21005K   21261.71727269 -.00000849  00000-0 -38081-4 0  9995","MEAN_ANOMALY":"290.8210","MEAN_ELEMENT_THEORY":"SGP4","TIME_SYSTEM":"UTC","PERIOD":"95.593","RA_OF_ASC_NODE":"162.3127"},{"REV_AT_EPOCH":"3761","SEMIMAJOR_AXIS":"6925.370","MEAN_MOTION_DOT":"-0.00000825","CENTER_NAME":"EARTH","GP_ID":"184952174","APOAPSIS":"548.464","MEAN_MOTION":"15.06393038","TLE_LINE2":"2 47359  53.0552 188.1648 0001775  66.9821 293.1355 15.06393038 37611","EPHEMERIS_TYPE":"0","CLASSIFICATION_TYPE":"U","DECAY_DATE":null,"RA_OF_ASC_NODE":"188.1648","PERIOD":"95.593","TIME_SYSTEM":"UTC","MEAN_ELEMENT_THEORY":"SGP4","MEAN_ANOMALY":"293.1355","TLE_LINE1":"1 47359U 21005L   21261.52883236 -.00000825  00000-0 -36465-4 0  9990","INCLINATION":"53.0552","RCS_SIZE":"LARGE","REF_FRAME":"TEME","COUNTRY_CODE":"US","LAUNCH_DATE":"2021-01-20","ARG_OF_PERICENTER":"66.9821","MEAN_MOTION_DDOT":"0.0000000000000","BSTAR":"-0.00003646500000","ELEMENT_SET_NO":"999","ECCENTRICITY":"0.00017750","OBJECT_NAME":"STARLINK-2069","OBJECT_TYPE":"PAYLOAD","FILE":"3118753","NORAD_CAT_ID":"47359","SITE":"AFETR","EPOCH":"2021-09-18T12:41:31.115904","PERIAPSIS":"546.006","OBJECT_ID":"2021-005L"},{"DECAY_DATE":null,"CLASSIFICATION_TYPE":"U","TLE_LINE2":"2 47360  53.0565 159.9198 0002152  55.8869 304.2324 15.06390859 37328","EPHEMERIS_TYPE":"0","MEAN_MOTION":"15.06390859","APOAPSIS":"548.732","GP_ID":"184946742","CENTER_NAME":"EARTH","MEAN_MOTION_DOT":"-0.00000763","SEMIMAJOR_AXIS":"6925.377","REV_AT_EPOCH":"3732","TLE_LINE1":"1 47360U 21005M   21261.13720425 -.00000763  00000-0 -32292-4 0  9994","MEAN_ANOMALY":"304.2324","MEAN_ELEMENT_THEORY":"SGP4","TIME_SYSTEM":"UTC","PERIOD":"95.593","RA_OF_ASC_NODE":"159.9198","LAUNCH_DATE":"2021-01-20","COUNTRY_CODE":"US","REF_FRAME":"TEME","RCS_SIZE":"LARGE","INCLINATION":"53.0565","OBJECT_ID":"2021-005M","PERIAPSIS":"545.751","EPOCH":"2021-09-18T03:17:34.447200","SITE":"AFETR","FILE":"3118594","NORAD_CAT_ID":"47360","OBJECT_TYPE":"PAYLOAD","OBJECT_NAME":"STARLINK-2070","ECCENTRICITY":"0.00021520","ELEMENT_SET_NO":"999","ARG_OF_PERICENTER":"55.8869","MEAN_MOTION_DDOT":"0.0000000000000","BSTAR":"-0.00003229200000"},{"LAUNCH_DATE":"2021-01-20","COUNTRY_CODE":"US","REF_FRAME":"TEME","RCS_SIZE":"LARGE","INCLINATION":"53.0531","PERIAPSIS":"545.705","EPOCH":"2021-09-18T11:01:18.943392","SITE":"AFETR","OBJECT_ID":"2021-005N","OBJECT_TYPE":"PAYLOAD","FILE":"3118682","NORAD_CAT_ID":"47361","ECCENTRICITY":"0.00021620","OBJECT_NAME":"STARLINK-2071","MEAN_MOTION_DDOT":"0.0000000000000","BSTAR":"0.00010479000000","ARG_OF_PERICENTER":"52.9321","ELEMENT_SET_NO":"999","DECAY_DATE":null,"CLASSIFICATION_TYPE":"U","EPHEMERIS_TYPE":"0","TLE_LINE2":"2 47361  53.0531 163.4687 0002162  52.9321 307.1865 15.06403669 38245","CENTER_NAME":"EARTH","GP_ID":"184950622","MEAN_MOTION":"15.06403669","APOAPSIS":"548.700","REV_AT_EPOCH":"3824","SEMIMAJOR_AXIS":"6925.337","MEAN_MOTION_DOT":"0.00001280","TLE_LINE1":"1 47361U 21005N   21261.45924703  .00001280  00000-0  10479-3 0  9990","MEAN_ANOMALY":"307.1865","MEAN_ELEMENT_THEORY":"SGP4","RA_OF_ASC_NODE":"163.4687","TIME_SYSTEM":"UTC","PERIOD":"95.592"},{"TIME_SYSTEM":"UTC","PERIOD":"95.592","RA_OF_ASC_NODE":"193.2836","MEAN_ANOMALY":"291.1974","MEAN_ELEMENT_THEORY":"SGP4","TLE_LINE1":"1 47362U 21005P   21261.50440762 -.00000545  00000-0 -17707-4 0  9992","MEAN_MOTION_DOT":"-0.00000545","SEMIMAJOR_AXIS":"6925.351","REV_AT_EPOCH":"3688","MEAN_MOTION":"15.06399254","APOAPSIS":"548.522","CENTER_NAME":"EARTH","GP_ID":"184947720","EPHEMERIS_TYPE":"0","TLE_LINE2":"2 47362  53.0546 193.2836 0001886  68.9216 291.1974 15.06399254 36886","CLASSIFICATION_TYPE":"U","DECAY_DATE":null,"ELEMENT_SET_NO":"999","MEAN_MOTION_DDOT":"0.0000000000000","ARG_OF_PERICENTER":"68.9216","BSTAR":"-0.00001770700000","OBJECT_NAME":"STARLINK-2076","ECCENTRICITY":"0.00018860","FILE":"3118594","NORAD_CAT_ID":"47362","OBJECT_TYPE":"PAYLOAD","OBJECT_ID":"2021-005P","PERIAPSIS":"545.910","EPOCH":"2021-09-18T12:06:20.818368","SITE":"AFETR","INCLINATION":"53.0546","REF_FRAME":"TEME","RCS_SIZE":"LARGE","LAUNCH_DATE":"2021-01-20","COUNTRY_CODE":"US"},{"MEAN_ELEMENT_THEORY":"SGP4","MEAN_ANOMALY":"292.5378","TLE_LINE1":"1 47363U 21005Q   21261.50809777 -.00000371  00000-0 -59751-5 0  9991","PERIOD":"95.593","TIME_SYSTEM":"UTC","RA_OF_ASC_NODE":"193.2620","EPHEMERIS_TYPE":"0","TLE_LINE2":"2 47363  53.0534 193.2620 0001629  67.5783 292.5378 15.06391985 36880","DECAY_DATE":null,"CLASSIFICATION_TYPE":"U","MEAN_MOTION_DOT":"-0.00000371","SEMIMAJOR_AXIS":"6925.373","REV_AT_EPOCH":"3688","APOAPSIS":"548.366","MEAN_MOTION":"15.06391985","CENTER_NAME":"EARTH","GP_ID":"184945993","NORAD_CAT_ID":"47363","FILE":"3118594","OBJECT_TYPE":"PAYLOAD","OBJECT_ID":"2021-005Q","EPOCH":"2021-09-18T12:11:39.647328","SITE":"AFETR","PERIAPSIS":"546.110","ELEMENT_SET_NO":"999","ARG_OF_PERICENTER":"67.5783","MEAN_MOTION_DDOT":"0.0000000000000","BSTAR":"-0.00000597510000","OBJECT_NAME":"STARLINK-2077","ECCENTRICITY":"0.00016290","RCS_SIZE":"LARGE","REF_FRAME":"TEME","COUNTRY_CODE":"US","LAUNCH_DATE":"2021-01-20","INCLINATION":"53.0534"},{"TLE_LINE2":"2 47364  53.0544 193.0940 0002014  63.8855 296.2341 15.06397187 36884","EPHEMERIS_TYPE":"0","CLASSIFICATION_TYPE":"U","DECAY_DATE":null,"REV_AT_EPOCH":"3688","SEMIMAJOR_AXIS":"6925.357","MEAN_MOTION_DOT":"0.00001567","CENTER_NAME":"EARTH","GP_ID":"184946243","MEAN_MOTION":"15.06397187","APOAPSIS":"548.617","MEAN_ANOMALY":"296.2341","MEAN_ELEMENT_THEORY":"SGP4","TLE_LINE1":"1 47364U 21005R   21261.54127087  .00001567  00000-0  12412-3 0  9990","RA_OF_ASC_NODE":"193.0940","TIME_SYSTEM":"UTC","PERIOD":"95.592","REF_FRAME":"TEME","RCS_SIZE":"LARGE","LAUNCH_DATE":"2021-01-20","COUNTRY_CODE":"US","INCLINATION":"53.0544","OBJECT_TYPE":"PAYLOAD","NORAD_CAT_ID":"47364","FILE":"3118594","PERIAPSIS":"545.827","SITE":"AFETR","EPOCH":"2021-09-18T12:59:25.803168","OBJECT_ID":"2021-005R","MEAN_MOTION_DDOT":"0.0000000000000","BSTAR":"0.00012412000000","ARG_OF_PERICENTER":"63.8855","ELEMENT_SET_NO":"999","ECCENTRICITY":"0.00020140","OBJECT_NAME":"STARLINK-2079"},{"ECCENTRICITY":"0.00023380","OBJECT_NAME":"STARLINK-2080","ARG_OF_PERICENTER":"27.6775","MEAN_MOTION_DDOT":"0.0000000000000","BSTAR":"0.00011221000000","ELEMENT_SET_NO":"999","SITE":"AFETR","EPOCH":"2021-09-17T23:54:56.714400","PERIAPSIS":"348.064","OBJECT_ID":"2021-005S","OBJECT_TYPE":"PAYLOAD","NORAD_CAT_ID":"47365","FILE":"3118594","INCLINATION":"53.0494","COUNTRY_CODE":"US","LAUNCH_DATE":"2021-01-20","RCS_SIZE":"LARGE","REF_FRAME":"TEME","RA_OF_ASC_NODE":"108.7347","PERIOD":"91.531","TIME_SYSTEM":"UTC","TLE_LINE1":"1 47365U 21005S   21260.99648975  .00015187  00000-0  11221-3 0  9993","MEAN_ELEMENT_THEORY":"SGP4","MEAN_ANOMALY":"332.4367","GP_ID":"184947494","CENTER_NAME":"EARTH","APOAPSIS":"351.210","MEAN_MOTION":"15.73243153","SEMIMAJOR_AXIS":"6727.772","REV_AT_EPOCH":"3802","MEAN_MOTION_DOT":"0.00015187","DECAY_DATE":null,"CLASSIFICATION_TYPE":"U","TLE_LINE2":"2 47365  53.0494 108.7347 0002338  27.6775 332.4367 15.73243153 38027","EPHEMERIS_TYPE":"0"},{"CLASSIFICATION_TYPE":"U","DECAY_DATE":null,"TLE_LINE2":"2 47366  53.0557 193.1323 0001804  62.8816 297.2357 15.06391740 36885","EPHEMERIS_TYPE":"0","APOAPSIS":"548.488","MEAN_MOTION":"15.06391740","CENTER_NAME":"EARTH","GP_ID":"184947221","MEAN_MOTION_DOT":"-0.00000444","SEMIMAJOR_AXIS":"6925.374","REV_AT_EPOCH":"3688","TLE_LINE1":"1 47366U 21005T   21261.53389952 -.00000444  00000-0 -10873-4 0  9997","MEAN_ELEMENT_THEORY":"SGP4","MEAN_ANOMALY":"297.2357","PERIOD":"95.593","TIME_SYSTEM":"UTC","RA_OF_ASC_NODE":"193.1323","COUNTRY_CODE":"US","LAUNCH_DATE":"2021-01-20","RCS_SIZE":"LARGE","REF_FRAME":"TEME","INCLINATION":"53.0557","OBJECT_ID":"2021-005T","SITE":"AFETR","EPOCH":"2021-09-18T12:48:48.918528","PERIAPSIS":"545.990","NORAD_CAT_ID":"47366","FILE":"3118594","OBJECT_TYPE":"PAYLOAD","OBJECT_NAME":"STARLINK-2081","ECCENTRICITY":"0.00018040","ELEMENT_SET_NO":"999","MEAN_MOTION_DDOT":"0.0000000000000","ARG_OF_PERICENTER":"62.8816","BSTAR":"-0.00001087300000"},{"ARG_OF_PERICENTER":"66.1472","MEAN_MOTION_DDOT":"0.0000000000000","BSTAR":"-0.00002907500000","ELEMENT_SET_NO":"999","ECCENTRICITY":"0.00020390","OBJECT_NAME":"STARLINK-2082","OBJECT_TYPE":"PAYLOAD","FILE":"3118594","NORAD_CAT_ID":"47367","EPOCH":"2021-09-18T05:28:16.360032","SITE":"AFETR","PERIAPSIS":"545.811","OBJECT_ID":"2021-005U","INCLINATION":"53.0545","REF_FRAME":"TEME","RCS_SIZE":"LARGE","COUNTRY_CODE":"US","LAUNCH_DATE":"2021-01-20","RA_OF_ASC_NODE":"194.5258","PERIOD":"95.592","TIME_SYSTEM":"UTC","MEAN_ELEMENT_THEORY":"SGP4","MEAN_ANOMALY":"293.9731","TLE_LINE1":"1 47367U 21005U   21261.22796713 -.00000715  00000-0 -29075-4 0  9996","SEMIMAJOR_AXIS":"6925.358","REV_AT_EPOCH":"3684","MEAN_MOTION_DOT":"-0.00000715","CENTER_NAME":"EARTH","GP_ID":"184946493","APOAPSIS":"548.635","MEAN_MOTION":"15.06396869","TLE_LINE2":"2 47367  53.0545 194.5258 0002039  66.1472 293.9731 15.06396869 36843","EPHEMERIS_TYPE":"0","DECAY_DATE":null,"CLASSIFICATION_TYPE":"U"}];
